HAWK-5A                 
1 52757U 22057AB  26199.18674028  .00010595  00000+0  17538-3 0  9991
2 52757  97.6633   0.0668 0003053 324.1521  35.9525 15.52389197231152
HAWK-6B                 
1 55324U 23011A   26198.93568646  .00002570  00000+0  11461-3 0  9998
2 55324  40.4976 172.6890 0004472 254.5549 105.4766 15.23169163192531
HAWK-6C                 
1 55326U 23011C   26199.26288320  .00002222  00000+0  10020-3 0  9999
2 55326  40.4967 167.6154 0004974 250.3835 109.6437 15.23170261192597
HAWK-6A                 
1 55327U 23011D   26199.19735523  .00002317  00000+0  10414-3 0  9996
2 55327  40.4977 169.6247 0004620 247.0466 112.9856 15.23169943192581
HAWK-7A                 
1 56191U 23054P   26199.16117738  .00002878  00000+0  10917-3 0  9992
2 56191  97.2655  85.7107 0001148 314.4527  45.6619 15.27650536181759
HAWK-7B                 
1 56193U 23054R   26199.16111157  .00002867  00000+0  10878-3 0  9997
2 56193  97.2681  83.9855 0000999  10.0646 350.0613 15.27648841181757
HAWK-7C                 
1 56200U 23054Y   26199.16098334  .00002888  00000+0  10951-3 0  9992
2 56200  97.2658  84.7447 0000626 338.3303  21.7910 15.27651601181759
